[
    {
        "Altitude(m)": 557738.5787121234,
        "Argument of Periapsis(deg)": 0.033114955553567506,
        "Eccentricity": 0.0,
        "Inclination(deg)": 53.0,
        "Latitude(deg)": 43.665186006204884,
        "Longitude(deg)": -143.31977141794172,
        "Mean Anomaly(deg)": 59.54896433788792,
        "RAAN(deg)": 274.9507168426401,
        "Satellite Name": "Starlink Shell 1 1210",
        "Satellite Number": 1210,
        "Semi-Major Axis(m)": 6931778.249405717,
        "Time(s)": 950
    },
    {
        "Altitude(m)": 557816.3407319679,
        "Argument of Periapsis(deg)": 0.03346353403307874,
        "Eccentricity": 0.0,
        "Inclination(deg)": 53.0,
        "Latitude(deg)": 44.01344882192162,
        "Longitude(deg)": -142.63947707031076,
        "Mean Anomaly(deg)": 60.175795541444664,
        "RAAN(deg)": 274.9501980725626,
        "Satellite Name": "Starlink Shell 1 1210",
        "Satellite Number": 1210,
        "Semi-Major Axis(m)": 6931778.249405717,
        "Time(s)": 960
    },
    {
        "Altitude(m)": 557893.3097846855,
        "Argument of Periapsis(deg)": 0.03381211251258998,
        "Eccentricity": 0.0,
        "Inclination(deg)": 53.0,
        "Latitude(deg)": 44.357081065734775,
        "Longitude(deg)": -141.9507524973165,
        "Mean Anomaly(deg)": 60.80262674500136,
        "RAAN(deg)": 274.9496793024851,
        "Satellite Name": "Starlink Shell 1 1210",
        "Satellite Number": 1210,
        "Semi-Major Axis(m)": 6931778.249405717,
        "Time(s)": 970
    },
    {
        "Altitude(m)": 557969.4375259808,
        "Argument of Periapsis(deg)": 0.034160690992101214,
        "Eccentricity": 0.0,
        "Inclination(deg)": 53.0,
        "Latitude(deg)": 44.695973688704456,
        "Longitude(deg)": -141.25351300465937,
        "Mean Anomaly(deg)": 61.42945794855805,
        "RAAN(deg)": 274.94916053240763,
        "Satellite Name": "Starlink Shell 1 1210",
        "Satellite Number": 1210,
        "Semi-Major Axis(m)": 6931778.249405717,
        "Time(s)": 980
    },
    {
        "Altitude(m)": 558044.6762468833,
        "Argument of Periapsis(deg)": 0.034509269471612446,
        "Eccentricity": 0.0,
        "Inclination(deg)": 53.0,
        "Latitude(deg)": 45.03001596090104,
        "Longitude(deg)": -140.54767861458066,
        "Mean Anomaly(deg)": 62.0562891521148,
        "RAAN(deg)": 274.9486417623302,
        "Satellite Name": "Starlink Shell 1 1210",
        "Satellite Number": 1210,
        "Semi-Major Axis(m)": 6931778.249405717,
        "Time(s)": 990
    }
]